ONEWEB-0661             
1 55821U 23029AB  23306.52347873  .00000500  00000+0  13138-2 0  9992
2 55821  87.8947 120.3684 0001833  70.7872 289.3456 13.14505051 33576
ONEWEB-0662             
1 55822U 23029AC  23306.55830169 -.00000159  00000+0 -46294-3 0  9993
2 55822  87.8950 120.3699 0001500  67.2708 292.8580 13.14500953 33626
ONEWEB-0663             
1 55823U 23029AD  23306.53523106  .00000084  00000+0  14180-3 0  9996
2 55823  87.9655 105.1092 0000955  66.5770 293.5471 13.33942917 34722
ONEWEB-0664             
1 55824U 23029AE  23306.48231728  .00000107  00000+0  18884-3 0  9998
2 55824  87.9626 105.1344 0001235  53.3863 306.7391 13.33853070 34718
ONEWEB-0665             
1 55825U 23029AF  23306.52023678 -.00000703  00000+0 -19311-2 0  9996
2 55825  87.8950 120.3447 0001603  72.5034 287.6270 13.14500951 33597
ONEWEB-0666             
1 55826U 23029AG  23306.50330062  .00000030  00000+0  34268-4 0  9994
2 55826  87.9685 105.1163 0000661  88.1689 271.9528 13.34044881 34727
ONEWEB-0667             
1 55827U 23029AH  23306.91668981  .00023087  00000+0  46364-1 0  9998
2 55827  87.9706 104.9689 0001425  57.2755  26.3350 13.34056945 35463
ONEWEB-0669             
1 55828U 23029AJ  23306.81701019  .00000122  00000+0  21867-3 0  9996
2 55828  87.9697 105.0263 0001407  90.2638 269.8664 13.33827846 35445
